[{"OBJECT_NAME":"COSMOS 2251 DEB","OBJECT_ID":"1993-036KM","EPOCH":"2026-03-06T06:40:22.080576","MEAN_MOTION":14.53628098,"ECCENTRICITY":0.00088222,"INCLINATION":74.0429,"RA_OF_ASC_NODE":25.1141,"ARG_OF_PERICENTER":84.5979,"MEAN_ANOMALY":344.8829,"EPHEMERIS_TYPE":0,"CLASSIFICATION_TYPE":"U","NORAD_CAT_ID":34116,"ELEMENT_SET_NO":999,"REV_AT_EPOCH":89700,"BSTAR":0.0010689146,"MEAN_MOTION_DOT":4.447e-5,"MEAN_MOTION_DDOT":0},{"OBJECT_NAME":"COSMOS 2251 DEB","OBJECT_ID":"1993-036KN","EPOCH":"2026-03-06T00:21:36.306720","MEAN_MOTION":14.40416865,"ECCENTRICITY":0.00572089,"INCLINATION":74.0403,"RA_OF_ASC_NODE":189.9217,"ARG_OF_PERICENTER":247.9901,"MEAN_ANOMALY":111.5171,"EPHEMERIS_TYPE":0,"CLASSIFICATION_TYPE":"U","NORAD_CAT_ID":34117,"ELEMENT_SET_NO":999,"REV_AT_EPOCH":89322,"BSTAR":0.0008878896,"MEAN_MOTION_DOT":2.849e-5,"MEAN_MOTION_DDOT":0},{"OBJECT_NAME":"COSMOS 2251 DEB","OBJECT_ID":"1993-036KP","EPOCH":"2026-03-05T17:47:44.253024","MEAN_MOTION":14.97818557,"ECCENTRICITY":0.00621034,"INCLINATION":73.9491,"RA_OF_ASC_NODE":80.8441,"ARG_OF_PERICENTER":252.6813,"MEAN_ANOMALY":227.5465,"EPHEMERIS_TYPE":0,"CLASSIFICATION_TYPE":"U","NORAD_CAT_ID":34118,"ELEMENT_SET_NO":999,"REV_AT_EPOCH":90417,"BSTAR":0.0023064313,"MEAN_MOTION_DOT":0.0002828,"MEAN_MOTION_DDOT":0},{"OBJECT_NAME":"COSMOS 2251 DEB","OBJECT_ID":"1993-036KR","EPOCH":"2026-03-06T02:42:08.480160","MEAN_MOTION":13.98780791,"ECCENTRICITY":0.01845515,"INCLINATION":73.99,"RA_OF_ASC_NODE":71.7855,"ARG_OF_PERICENTER":241.6456,"MEAN_ANOMALY":183.0309,"EPHEMERIS_TYPE":0,"CLASSIFICATION_TYPE":"U","NORAD_CAT_ID":34120,"ELEMENT_SET_NO":999,"REV_AT_EPOCH":87146,"BSTAR":0.00031374773,"MEAN_MOTION_DOT":4.97e-6,"MEAN_MOTION_DDOT":0},{"OBJECT_NAME":"COSMOS 2251 DEB","OBJECT_ID":"1993-036KS","EPOCH":"2026-03-06T02:58:21.360576","MEAN_MOTION":13.92274537,"ECCENTRICITY":0.02390975,"INCLINATION":73.9924,"RA_OF_ASC_NODE":314.2326,"ARG_OF_PERICENTER":142.036,"MEAN_ANOMALY":7.9078,"EPHEMERIS_TYPE":0,"CLASSIFICATION_TYPE":"U","NORAD_CAT_ID":34121,"ELEMENT_SET_NO":999,"REV_AT_EPOCH":86285,"BSTAR":0.0011332413,"MEAN_MOTION_DOT":1.815e-5,"MEAN_MOTION_DDOT":0},{"OBJECT_NAME":"COSMOS 2251 DEB","OBJECT_ID":"1993-036KT","EPOCH":"2026-03-06T02:52:49.931904","MEAN_MOTION":14.66304735,"ECCENTRICITY":0.0083606,"INCLINATION":74.0379,"RA_OF_ASC_NODE":318.055,"ARG_OF_PERICENTER":194.4843,"MEAN_ANOMALY":289.0041,"EPHEMERIS_TYPE":0,"CLASSIFICATION_TYPE":"U","NORAD_CAT_ID":34122,"ELEMENT_SET_NO":999,"REV_AT_EPOCH":89906,"BSTAR":0.00089246483,"MEAN_MOTION_DOT":5.158e-5,"MEAN_MOTION_DDOT":0},{"OBJECT_NAME":"COSMOS 2251 DEB","OBJECT_ID":"1993-036KY","EPOCH":"2026-03-05T22:11:05.156736","MEAN_MOTION":14.32343951,"ECCENTRICITY":0.01125223,"INCLINATION":74.1756,"RA_OF_ASC_NODE":253.4298,"ARG_OF_PERICENTER":69.1506,"MEAN_ANOMALY":1.0484,"EPHEMERIS_TYPE":0,"CLASSIFICATION_TYPE":"U","NORAD_CAT_ID":34127,"ELEMENT_SET_NO":999,"REV_AT_EPOCH":87962,"BSTAR":0.001352873,"MEAN_MOTION_DOT":3.898e-5,"MEAN_MOTION_DDOT":0},{"OBJECT_NAME":"COSMOS 2251 DEB","OBJECT_ID":"1993-036KZ","EPOCH":"2026-03-06T05:33:32.641056","MEAN_MOTION":15.07548453,"ECCENTRICITY":0.00280384,"INCLINATION":73.9945,"RA_OF_ASC_NODE":125.6016,"ARG_OF_PERICENTER":233.5022,"MEAN_ANOMALY":188.8716,"EPHEMERIS_TYPE":0,"CLASSIFICATION_TYPE":"U","NORAD_CAT_ID":34128,"ELEMENT_SET_NO":999,"REV_AT_EPOCH":90422,"BSTAR":0.0023535864,"MEAN_MOTION_DOT":0.00036242,"MEAN_MOTION_DDOT":0},{"OBJECT_NAME":"COSMOS 2251 DEB","OBJECT_ID":"1993-036LA","EPOCH":"2026-03-06T06:55:21.103680","MEAN_MOTION":14.77468791,"ECCENTRICITY":0.00346791,"INCLINATION":74.0355,"RA_OF_ASC_NODE":175.8209,"ARG_OF_PERICENTER":241.9219,"MEAN_ANOMALY":117.8448,"EPHEMERIS_TYPE":0,"CLASSIFICATION_TYPE":"U","NORAD_CAT_ID":34129,"ELEMENT_SET_NO":999,"REV_AT_EPOCH":62531,"BSTAR":0.0016551732,"MEAN_MOTION_DOT":0.00011901,"MEAN_MOTION_DDOT":0},{"OBJECT_NAME":"COSMOS 2251 DEB","OBJECT_ID":"1993-036LH","EPOCH":"2026-03-05T22:19:25.073184","MEAN_MOTION":14.8075375,"ECCENTRICITY":0.00860271,"INCLINATION":74.0181,"RA_OF_ASC_NODE":238.4731,"ARG_OF_PERICENTER":338.5321,"MEAN_ANOMALY":139.9843,"EPHEMERIS_TYPE":0,"CLASSIFICATION_TYPE":"U","NORAD_CAT_ID":34136,"ELEMENT_SET_NO":999,"REV_AT_EPOCH":91241,"BSTAR":0.00040124699,"MEAN_MOTION_DOT":3.256e-5,"MEAN_MOTION_DDOT":0},{"OBJECT_NAME":"COSMOS 2251 DEB","OBJECT_ID":"1993-036LL","EPOCH":"2026-03-06T04:29:31.449120","MEAN_MOTION":14.60550563,"ECCENTRICITY":0.00388118,"INCLINATION":74.0285,"RA_OF_ASC_NODE":94.8184,"ARG_OF_PERICENTER":153.4005,"MEAN_ANOMALY":274.1114,"EPHEMERIS_TYPE":0,"CLASSIFICATION_TYPE":"U","NORAD_CAT_ID":34139,"ELEMENT_SET_NO":999,"REV_AT_EPOCH":89367,"BSTAR":0.0010230991,"MEAN_MOTION_DOT":4.995e-5,"MEAN_MOTION_DDOT":0},{"OBJECT_NAME":"COSMOS 2251 DEB","OBJECT_ID":"1993-036LN","EPOCH":"2026-03-05T22:01:08.828256","MEAN_MOTION":14.50440236,"ECCENTRICITY":0.00495947,"INCLINATION":74.0087,"RA_OF_ASC_NODE":232.445,"ARG_OF_PERICENTER":298.4673,"MEAN_ANOMALY":187.2741,"EPHEMERIS_TYPE":0,"CLASSIFICATION_TYPE":"U","NORAD_CAT_ID":34141,"ELEMENT_SET_NO":999,"REV_AT_EPOCH":88899,"BSTAR":0.0018167231,"MEAN_MOTION_DOT":7.193e-5,"MEAN_MOTION_DDOT":0},{"OBJECT_NAME":"COSMOS 2251 DEB","OBJECT_ID":"1993-036LQ","EPOCH":"2026-03-06T05:50:51.183744","MEAN_MOTION":14.65790336,"ECCENTRICITY":0.00512274,"INCLINATION":74.0117,"RA_OF_ASC_NODE":145.6393,"ARG_OF_PERICENTER":277.6627,"MEAN_ANOMALY":81.8725,"EPHEMERIS_TYPE":0,"CLASSIFICATION_TYPE":"U","NORAD_CAT_ID":34270,"ELEMENT_SET_NO":999,"REV_AT_EPOCH":90319,"BSTAR":0.00085454655,"MEAN_MOTION_DOT":4.722e-5,"MEAN_MOTION_DDOT":0},{"OBJECT_NAME":"COSMOS 2251 DEB","OBJECT_ID":"1993-036LR","EPOCH":"2026-03-05T23:01:39.471168","MEAN_MOTION":14.73342829,"ECCENTRICITY":0.00128283,"INCLINATION":74.0202,"RA_OF_ASC_NODE":37.2873,"ARG_OF_PERICENTER":74.7835,"MEAN_ANOMALY":346.9138,"EPHEMERIS_TYPE":0,"CLASSIFICATION_TYPE":"U","NORAD_CAT_ID":34271,"ELEMENT_SET_NO":999,"REV_AT_EPOCH":89459,"BSTAR":0.0024684808,"MEAN_MOTION_DOT":0.0001601,"MEAN_MOTION_DDOT":0},{"OBJECT_NAME":"COSMOS 2251 DEB","OBJECT_ID":"1993-036LT","EPOCH":"2026-03-05T21:17:20.999904","MEAN_MOTION":14.62080633,"ECCENTRICITY":0.00129351,"INCLINATION":74.0344,"RA_OF_ASC_NODE":288.3382,"ARG_OF_PERICENTER":26.1258,"MEAN_ANOMALY":156.6996,"EPHEMERIS_TYPE":0,"CLASSIFICATION_TYPE":"U","NORAD_CAT_ID":34273,"ELEMENT_SET_NO":999,"REV_AT_EPOCH":89836,"BSTAR":0.00077464947,"MEAN_MOTION_DOT":3.868e-5,"MEAN_MOTION_DDOT":0},{"OBJECT_NAME":"COSMOS 2251 DEB","OBJECT_ID":"1993-036LU","EPOCH":"2026-03-05T23:55:48.398016","MEAN_MOTION":14.6589667,"ECCENTRICITY":0.00211213,"INCLINATION":74.0009,"RA_OF_ASC_NODE":268.0114,"ARG_OF_PERICENTER":33.0525,"MEAN_ANOMALY":116.9724,"EPHEMERIS_TYPE":0,"CLASSIFICATION_TYPE":"U","NORAD_CAT_ID":34274,"ELEMENT_SET_NO":999,"REV_AT_EPOCH":89895,"BSTAR":0.00098201361,"MEAN_MOTION_DOT":5.359e-5,"MEAN_MOTION_DDOT":0}]
