COSMOS 2251 DEB         
1 34116U 93036KM  26065.27803334  .00004447  00000+0  10689-2 0  9999
2 34116  74.0429  25.1141 0008822  84.5979 344.8829 14.53628098897007
COSMOS 2251 DEB         
1 34117U 93036KN  26065.01500355  .00002849  00000+0  88789-3 0  9990
2 34117  74.0403 189.9217 0057208 247.9901 111.5171 14.40416865893227
COSMOS 2251 DEB         
1 34118U 93036KP  26064.74148441  .00028280  00000+0  23064-2 0  9995
2 34118  73.9491  80.8441 0062103 252.6813 227.5465 14.97818557904173
COSMOS 2251 DEB         
1 34120U 93036KR  26065.11259815  .00000497  00000+0  31375-3 0  9993
2 34120  73.9900  71.7855 0184551 241.6456 183.0309 13.98780791871468
COSMOS 2251 DEB         
1 34121U 93036KS  26065.12385834  .00001815  00000+0  11332-2 0  9991
2 34121  73.9924 314.2326 0239097 142.0360   7.9078 13.92274537862857
COSMOS 2251 DEB         
1 34122U 93036KT  26065.12002236  .00005158  00000+0  89246-3 0  9998
2 34122  74.0379 318.0550 0083606 194.4843 289.0041 14.66304735899067
COSMOS 2251 DEB         
1 34127U 93036KY  26064.92436524  .00003898  00000+0  13529-2 0  9990
2 34127  74.1756 253.4298 0112522  69.1506   1.0484 14.32343951879626
COSMOS 2251 DEB         
1 34128U 93036KZ  26065.23162779  .00036242  00000+0  23536-2 0  9992
2 34128  73.9945 125.6016 0028038 233.5022 188.8716 15.07548453904224
COSMOS 2251 DEB         
1 34129U 93036LA  26065.28843870  .00011901  00000+0  16552-2 0  9991
2 34129  74.0355 175.8209 0034679 241.9219 117.8448 14.77468791625318
COSMOS 2251 DEB         
1 34136U 93036LH  26064.93015131  .00003256  00000+0  40125-3 0  9999
2 34136  74.0181 238.4731 0086027 338.5321 139.9843 14.80753750912410
COSMOS 2251 DEB         
1 34139U 93036LL  26065.18716955  .00004995  00000+0  10231-2 0  9997
2 34139  74.0285  94.8184 0038811 153.4005 274.1114 14.60550563893679
COSMOS 2251 DEB         
1 34141U 93036LN  26064.91746329  .00007193  00000+0  18167-2 0  9997
2 34141  74.0087 232.4450 0049594 298.4673 187.2741 14.50440236888992
COSMOS 2251 DEB         
1 34270U 93036LQ  26065.24364796  .00004722  00000+0  85455-3 0  9991
2 34270  74.0117 145.6393 0051227 277.6627  81.8725 14.65790336903190
COSMOS 2251 DEB         
1 34271U 93036LR  26064.95948462  .00016010  00000+0  24685-2 0  9997
2 34271  74.0202  37.2873 0012828  74.7835 346.9138 14.73342829894591
COSMOS 2251 DEB         
1 34273U 93036LT  26064.88704861  .00003868  00000+0  77465-3 0  9996
2 34273  74.0344 288.3382 0012935  26.1258 156.6996 14.62080633898360
COSMOS 2251 DEB         
1 34274U 93036LU  26064.99708794  .00005359  00000+0  98201-3 0  9996
2 34274  74.0009 268.0114 0021121  33.0525 116.9724 14.65896670898950
